[{"OBJECT_NAME":"STARLINK-30169","OBJECT_ID":"2023-113E","EPOCH":"2026-03-09T04:11:41.659008","MEAN_MOTION":15.27589512,"ECCENTRICITY":0.00023859,"INCLINATION":43.0048,"RA_OF_ASC_NODE":4.7938,"ARG_OF_PERICENTER":269.555,"MEAN_ANOMALY":90.5028,"EPHEMERIS_TYPE":0,"CLASSIFICATION_TYPE":"U","NORAD_CAT_ID":57499,"ELEMENT_SET_NO":999,"REV_AT_EPOCH":14360,"BSTAR":-5.3048689e-5,"MEAN_MOTION_DOT":-1.723e-5,"MEAN_MOTION_DDOT":0},{"OBJECT_NAME":"FLOCK 4G-15","OBJECT_ID":"2025-009BX","EPOCH":"2026-03-09T17:13:37.807680","MEAN_MOTION":15.27266411,"ECCENTRICITY":0.00036988,"INCLINATION":97.4054,"RA_OF_ASC_NODE":151.1927,"ARG_OF_PERICENTER":316.8208,"MEAN_ANOMALY":43.274,"EPHEMERIS_TYPE":0,"CLASSIFICATION_TYPE":"U","NORAD_CAT_ID":62678,"ELEMENT_SET_NO":999,"REV_AT_EPOCH":12135,"BSTAR":0.00047574812,"MEAN_MOTION_DOT":0.00012647,"MEAN_MOTION_DDOT":0}]
